NORAD_CAT_ID,OBJECT_NAME,OBJECT_TYPE,EPOCH,MEAN_MOTION,ECCENTRICITY,INCLINATION,RA_OF_ASC_NODE,ARG_OF_PERICENTER,MEAN_ANOMALY,BSTAR,MEAN_MOTION_DOT,MEAN_MOTION_DDOT,TLE_LINE0,TLE_LINE1,TLE_LINE2,SEMIMAJOR_AXIS,PERIOD,APOGEE,PERIGEE,DECAYED
53826.0,STARLINK-4756,PAYLOAD,2024-07-16 05:45:05,15.08835922,0.0001421,53.2183,124.0792,86.2194,273.8961,9.6223e-05,1.244e-05,0.0,0 STARLINK-4756,1 53826U 22114J   24198.23965244  .00001244  00000-0  96223-4 0  9990,2 53826  53.2183 124.0792 0001421  86.2194 273.8961 15.08835922102036,6917.893,95.438,540.741,538.775,0.0
53826.0,STARLINK-4756,PAYLOAD,2024-07-17 02:25:07,15.08827153,0.0001407,53.2156,120.2133,84.9444,275.1709,-3.8306e-05,-8.97e-06,0.0,0 STARLINK-4756,1 53826U 22114J   24199.10077732 -.00000897  00000-0 -38306-4 0  9996,2 53826  53.2156 120.2133 0001407  84.9444 275.1709 15.08827153101626,6917.92,95.438,540.758,538.811,0.0
53826.0,STARLINK-4756,PAYLOAD,2024-07-17 11:57:25,15.08849556,0.0001585,53.2173,118.43,89.268,270.8493,0.00018375,2.638e-05,0.0,0 STARLINK-4756,1 53826U 22114J   24199.49820799  .00002638  00000-0  18375-3 0  9993,2 53826  53.2173 118.4300 0001585  89.2680 270.8493 15.08849556101686,6917.851,95.437,540.813,538.62,0.0
53826.0,STARLINK-4756,PAYLOAD,2024-07-18 03:51:16,15.08850021,0.0001056,53.2155,115.4583,96.8358,263.2754,0.00030331,4.544e-05,0.0,0 STARLINK-4756,1 53826U 22114J   24200.16060850  .00004544  00000-0  30331-3 0  9998,2 53826  53.2155 115.4583 0001056  96.8358 263.2754 15.08850021101781,6917.85,95.437,540.445,538.984,0.0
53826.0,STARLINK-4756,PAYLOAD,2024-07-18 11:48:12,15.08852303,0.0001663,53.2179,113.9687,109.1668,250.9504,0.00036488,5.526e-05,0.0,0 STARLINK-4756,1 53826U 22114J   24200.49180981  .00005526  00000-0  36488-3 0  9992,2 53826  53.2179 113.9687 0001663 109.1668 250.9504 15.08852303102378,6917.843,95.437,540.858,538.557,0.0
53826.0,STARLINK-4756,PAYLOAD,2024-07-18 22:55:55,15.08830088,0.0001482,53.2169,111.887,91.1887,268.9274,-8.5548e-06,-4.24e-06,0.0,0 STARLINK-4756,1 53826U 22114J   24200.95549834 -.00000424  00000-0 -85548-5 0  9996,2 53826  53.2169 111.8870 0001482  91.1887 268.9274 15.08830088102447,6917.911,95.438,540.801,538.75,0.0
53826.0,STARLINK-4756,PAYLOAD,2024-07-19 03:42:04,15.08837861,0.0001556,53.2163,110.9901,111.9859,248.1298,6.4506e-05,7.39e-06,0.0,0 STARLINK-4756,1 53826U 22114J   24201.15421447  .00000739  00000-0  64506-4 0  9995,2 53826  53.2163 110.9901 0001556 111.9859 248.1298 15.08837861101933,6917.887,95.438,540.828,538.676,0.0
53826.0,STARLINK-4756,PAYLOAD,2024-07-19 11:38:59,15.08844986,0.0001548,53.2167,109.5048,109.6181,250.4979,0.00021171,3.083e-05,0.0,0 STARLINK-4756,1 53826U 22114J   24201.48541239  .00003083  00000-0  21171-3 0  9998,2 53826  53.2167 109.5048 0001548 109.6181 250.4979 15.08844986102520,6917.865,95.437,540.801,538.659,0.0
53826.0,STARLINK-4756,PAYLOAD,2024-07-19 22:46:41,15.08842778,0.0001789,53.2178,107.4233,117.1488,242.9686,0.00020931,3.045e-05,0.0,0 STARLINK-4756,1 53826U 22114J   24201.94909511  .00003045  00000-0  20931-3 0  9991,2 53826  53.2178 107.4233 0001789 117.1488 242.9686 15.08842778102591,6917.872,95.437,540.975,538.499,0.0
53826.0,STARLINK-4756,PAYLOAD,2024-07-20 03:32:51,15.08842924,0.0001579,53.2158,106.5331,94.4362,265.6811,0.00014008,1.942e-05,0.0,0 STARLINK-4756,1 53826U 22114J   24202.14781576  .00001942  00000-0  14008-3 0  9995,2 53826  53.2158 106.5331 0001579  94.4362 265.6811 15.08842924102622,6917.871,95.437,540.829,538.644,0.0
53826.0,STARLINK-4756,PAYLOAD,2024-07-20 21:02:06,15.08842739,0.0001461,53.2166,103.2595,92.7663,267.3496,0.00030898,4.633e-05,0.0,0 STARLINK-4756,1 53826U 22114J   24202.87645876  .00004633  00000-0  30898-3 0  9992,2 53826  53.2166 103.2595 0001461  92.7663 267.3496 15.08842739102196,6917.872,95.437,540.748,538.726,0.0
53826.0,STARLINK-4756,PAYLOAD,2024-07-20 22:37:29,15.08841611,0.0001508,53.2168,102.9621,91.9268,268.1897,0.0002484,3.668e-05,0.0,0 STARLINK-4756,1 53826U 22114J   24202.94269927  .00003668  00000-0  24840-3 0  9996,2 53826  53.2168 102.9621 0001508  91.9268 268.1897 15.08841611102741,6917.875,95.437,540.784,538.697,0.0
53826.0,STARLINK-4756,PAYLOAD,2024-07-21 00:12:52,15.08842844,0.0001389,53.2169,102.6645,96.522,263.593,0.00026947,4.004e-05,0.0,0 STARLINK-4756,1 53826U 22114J   24203.00893769  .00004004  00000-0  26947-3 0  9996,2 53826  53.2169 102.6645 0001389  96.5220 263.5930 15.08842844102758,6917.872,95.437,540.698,538.776,0.0
53826.0,STARLINK-4756,PAYLOAD,2024-07-21 20:52:53,15.08838347,0.0001335,53.2164,98.7989,90.6658,269.4487,0.00016747,2.378e-05,0.0,0 STARLINK-4756,1 53826U 22114J   24203.87006015  .00002378  00000-0  16747-3 0  9990,2 53826  53.2164  98.7989 0001335  90.6658 269.4487 15.08838347102340,6917.885,95.438,540.674,538.827,0.0
53826.0,STARLINK-4756,PAYLOAD,2024-07-21 22:28:16,15.08838702,0.0001337,53.2162,98.5015,89.2795,270.8351,7.2183e-05,8.61e-06,0.0,0 STARLINK-4756,1 53826U 22114J   24203.93629934  .00000861  00000-0  72183-4 0  9990,2 53826  53.2162  98.5015 0001337  89.2795 270.8351 15.08838702102895,6917.884,95.438,540.674,538.824,0.0
53826.0,STARLINK-4756,PAYLOAD,2024-07-22 00:03:39,15.08839136,0.0001311,53.2161,98.204,85.8423,274.2719,5.6662e-05,6.14e-06,0.0,0 STARLINK-4756,1 53826U 22114J   24204.00253947  .00000614  00000-0  56662-4 0  9996,2 53826  53.2161  98.2040 0001311  85.8423 274.2719 15.08839136102901,6917.883,95.438,540.655,538.841,0.0
53826.0,STARLINK-4756,PAYLOAD,2024-07-22 22:19:03,15.08844062,0.0001195,53.2154,94.0441,90.6553,269.4576,0.00015282,2.145e-05,0.0,0 STARLINK-4756,1 53826U 22114J   24204.92989624  .00002145  00000-0  15282-3 0  9998,2 53826  53.2154  94.0441 0001195  90.6553 269.4576 15.08844062103047,6917.868,95.437,540.56,538.906,0.0
53826.0,STARLINK-4756,PAYLOAD,2024-07-23 03:05:12,15.0884634,0.0001196,53.2152,93.1502,86.8758,273.2371,0.00016795,2.387e-05,0.0,0 STARLINK-4756,1 53826U 22114J   24205.12861462  .00002387  00000-0  16795-3 0  9998,2 53826  53.2152  93.1502 0001196  86.8758 273.2371 15.08846340102538,6917.861,95.437,540.553,538.899,0.0
53826.0,STARLINK-4756,PAYLOAD,2024-07-23 09:26:44,15.0885293,0.0001222,53.216,91.9637,91.2172,268.896,0.00025552,3.782e-05,0.0,0 STARLINK-4756,1 53826U 22114J   24205.39357034  .00003782  00000-0  25552-3 0  9993,2 53826  53.2160  91.9637 0001222  91.2172 268.8960 15.08852930103113,6917.841,95.437,540.551,538.861,0.0
53826.0,STARLINK-4756,PAYLOAD,2024-07-23 23:45:14,15.08821407,0.0001317,53.2154,89.2842,79.6854,280.4286,-0.00017504,-3.071e-05,0.0,0 STARLINK-4756,1 53826U 22114J   24205.98975094 -.00003071  00000-0 -17504-3 0  9991,2 53826  53.2154  89.2842 0001317  79.6854 280.4286 15.08821407102661,6917.937,95.439,540.713,538.891,0.0
53826.0,STARLINK-4756,PAYLOAD,2024-07-25 01:11:23,15.08851082,0.000134,53.2162,84.5277,81.5957,278.5187,0.00027016,4.016e-05,0.0,0 STARLINK-4756,1 53826U 22114J   24207.04958089  .00004016  00000-0  27016-3 0  9992,2 53826  53.2162  84.5277 0001340  81.5957 278.5187 15.08851082102820,6917.847,95.437,540.639,538.785,0.0
53826.0,STARLINK-4756,PAYLOAD,2024-07-25 21:51:24,15.08847704,0.0001223,53.2169,80.6608,130.1549,229.9551,0.00026307,3.902e-05,0.0,0 STARLINK-4756,1 53826U 22114J   24207.91070057  .00003902  00000-0  26307-3 0  9993,2 53826  53.2169  80.6608 0001223 130.1549 229.9551 15.08847704103495,6917.857,95.437,540.568,538.876,0.0
53826.0,STARLINK-4756,PAYLOAD,2024-07-26 15:20:39,15.08847929,0.0001449,53.2173,77.3908,111.5854,248.5292,0.00014646,2.044e-05,0.0,0 STARLINK-4756,1 53826U 22114J   24208.63934108  .00002044  00000-0  14646-3 0  9998,2 53826  53.2173  77.3908 0001449 111.5854 248.5292 15.08847929103609,6917.856,95.437,540.724,538.719,0.0
53826.0,STARLINK-4756,PAYLOAD,2024-07-26 21:42:11,15.08852499,0.0001441,53.2172,76.202,108.5796,251.5353,0.0002254,3.302e-05,0.0,0 STARLINK-4756,1 53826U 22114J   24208.90429840  .00003302  00000-0  22540-3 0  9990,2 53826  53.2172  76.2020 0001441 108.5796 251.5353 15.08852499103648,6917.842,95.437,540.704,538.71,0.0
53826.0,STARLINK-4756,PAYLOAD,2024-07-27 21:32:57,15.08881175,0.0001032,53.2181,71.7424,64.7982,295.3117,0.00076864,0.0001198,0.0,0 STARLINK-4756,1 53826U 22114J   24209.89788251  .00011980  00000-0  76864-3 0  9992,2 53826  53.2181  71.7424 0001032  64.7982 295.3117 15.08881175103795,6917.755,95.435,540.333,538.906,0.0
53826.0,STARLINK-4756,PAYLOAD,2024-07-28 19:48:22,15.08831252,0.000139,53.2175,67.5798,111.2142,248.8999,-0.00014435,-2.584e-05,0.0,0 STARLINK-4756,1 53826U 22114J   24210.82526126 -.00002584  00000-0 -14435-3 0  9996,2 53826  53.2175  67.5798 0001390 111.2142 248.8999 15.08831252103396,6917.907,95.438,540.734,538.811,0.0
53826.0,STARLINK-4756,PAYLOAD,2024-07-29 21:14:32,15.08834326,0.0001148,53.2171,62.8237,80.3997,279.7125,-1.7189e-05,-5.61e-06,0.0,0 STARLINK-4756,1 53826U 22114J   24211.88510356 -.00000561  00000-0 -17189-4 0  9994,2 53826  53.2171  62.8237 0001148  80.3997 279.7125 15.08834326103550,6917.898,95.438,540.557,538.969,0.0
53826.0,STARLINK-4756,PAYLOAD,2024-07-30 06:46:52,15.08836561,0.0001312,53.2176,61.038,115.8556,244.2572,0.00064179,9.94e-05,0.0,0 STARLINK-4756,1 53826U 22114J   24212.28255051  .00009940  00000-0  64179-3 0  9995,2 53826  53.2176  61.0380 0001312 115.8556 244.2572 15.08836561104156,6917.891,95.438,540.664,538.848,0.0
53826.0,STARLINK-4756,PAYLOAD,2024-07-30 21:05:20,15.08853014,0.0001349,53.2176,58.3628,98.2706,261.8439,0.00052643,8.103e-05,0.0,0 STARLINK-4756,1 53826U 22114J   24212.87870461  .00008103  00000-0  52643-3 0  9991,2 53826  53.2176  58.3628 0001349  98.2706 261.8439 15.08853014103700,6917.841,95.437,540.639,538.772,0.0
53826.0,STARLINK-4756,PAYLOAD,2024-07-31 20:56:07,15.08834019,0.0001395,53.2175,53.9024,72.2215,287.8929,-3.5682e-05,-8.56e-06,0.0,0 STARLINK-4756,1 53826U 22114J   24213.87230964 -.00000856  00000-0 -35682-4 0  9994,2 53826  53.2175  53.9024 0001395  72.2215 287.8929 15.08834019103850,6917.899,95.438,540.729,538.799,0.0
